NORAD_CAT_ID,OBJECT_NAME,OBJECT_TYPE,EPOCH,MEAN_MOTION,ECCENTRICITY,INCLINATION,RA_OF_ASC_NODE,ARG_OF_PERICENTER,MEAN_ANOMALY,BSTAR,MEAN_MOTION_DOT,MEAN_MOTION_DDOT,TLE_LINE0,TLE_LINE1,TLE_LINE2,SEMIMAJOR_AXIS,PERIOD,APOGEE,PERIGEE,DECAYED
56813.0,STARLINK-6056,PAYLOAD,2024-04-17 14:01:14,14.98325596,0.000264,70.0004,286.8014,263.3292,96.7567,-3.4989e-05,-5.1e-06,0.0,0 STARLINK-6056,1 56813U 23078AY  24108.58419104 -.00000510  00000-0 -34989-4 0  9995,2 56813  70.0004 286.8014 0002640 263.3292  96.7567 14.98325596 49166,6950.207,96.107,573.906,570.237,0.0
56813.0,STARLINK-6056,PAYLOAD,2024-04-17 18:49:38,14.98321899,0.0002473,70.0001,286.2972,247.8176,112.2721,-4.0203e-05,-5.72e-06,0.0,0 STARLINK-6056,1 56813U 23078AY  24108.78447379 -.00000572  00000-0 -40203-4 0  9996,2 56813  70.0001 286.2972 0002473 247.8176 112.2721 14.98321899 49452,6950.218,96.108,573.802,570.364,0.0
56813.0,STARLINK-6056,PAYLOAD,2024-04-17 22:01:54,14.98323748,0.000266,70.0002,285.9605,260.5318,99.554,-5.7312e-05,-7.77e-06,0.0,0 STARLINK-6056,1 56813U 23078AY  24108.91799370 -.00000777  00000-0 -57312-4 0  9998,2 56813  70.0002 285.9605 0002660 260.5318  99.5540 14.98323748 49215,6950.212,96.107,573.926,570.228,0.0
56813.0,STARLINK-6056,PAYLOAD,2024-04-18 12:27:06,14.9833537,0.0002743,69.9994,284.4446,263.0803,97.0044,3.3537e-05,3.07e-06,0.0,0 STARLINK-6056,1 56813U 23078AY  24109.51882437  .00000307  00000-0  33537-4 0  9992,2 56813  69.9994 284.4446 0002743 263.0803  97.0044 14.98335370 49562,6950.176,96.107,573.948,570.135,0.0
56813.0,STARLINK-6056,PAYLOAD,2024-04-18 14:03:14,14.98335858,0.0002737,69.9995,284.2761,261.8488,98.2361,4.0999e-05,3.96e-06,0.0,0 STARLINK-6056,1 56813U 23078AY  24109.58558355  .00000396  00000-0  40999-4 0  9996,2 56813  69.9995 284.2761 0002737 261.8488  98.2361 14.98335858 49318,6950.175,96.107,573.942,570.138,0.0
56813.0,STARLINK-6056,PAYLOAD,2024-04-18 22:03:54,14.98347762,0.000256,69.9998,283.4346,260.0749,100.0121,-0.00011431,-1.457e-05,0.0,0 STARLINK-6056,1 56813U 23078AY  24109.91937834 -.00001457  00000-0 -11431-3 0  9995,2 56813  69.9998 283.4346 0002560 260.0749 100.0121 14.98347762 49364,6950.138,96.106,573.782,570.224,0.0
56813.0,STARLINK-6056,PAYLOAD,2024-04-19 12:29:03,14.98370578,0.0003049,69.9999,281.9199,275.4508,84.6303,0.00050077,5.893e-05,0.0,0 STARLINK-6056,1 56813U 23078AY  24110.52017646  .00005893  00000-0  50077-3 0  9999,2 56813  69.9999 281.9199 0003049 275.4508  84.6303 14.98370578 49719,6950.067,96.104,574.051,569.813,0.0
56813.0,STARLINK-6056,PAYLOAD,2024-04-19 14:05:14,14.98328141,0.0002869,69.9996,281.7511,270.632,89.451,5.225e-06,-3.1e-07,0.0,0 STARLINK-6056,1 56813U 23078AY  24110.58697408 -.00000031  00000-0  52250-5 0  9992,2 56813  69.9996 281.7511 0002869 270.6320  89.4510 14.98328141 49464,6950.199,96.107,574.058,570.07,0.0
56813.0,STARLINK-6056,PAYLOAD,2024-04-19 20:29:47,14.98319809,0.0002766,69.9996,281.0774,265.6561,94.4282,-9.272e-05,-1.199e-05,0.0,0 STARLINK-6056,1 56813U 23078AY  24110.85402211 -.00001199  00000-0 -92720-4 0  9990,2 56813  69.9996 281.0774 0002766 265.6561  94.4282 14.98319809 49761,6950.224,96.108,574.012,570.167,0.0
56813.0,STARLINK-6056,PAYLOAD,2024-04-19 22:05:55,14.98319448,0.0002645,69.9999,280.9093,258.1711,101.9151,-8.7662e-05,-1.138e-05,0.0,0 STARLINK-6056,1 56813U 23078AY  24110.92078212 -.00001138  00000-0 -87662-4 0  9990,2 56813  69.9999 280.9093 0002645 258.1711 101.9151 14.98319448 49517,6950.226,96.108,573.929,570.252,0.0
56813.0,STARLINK-6056,PAYLOAD,2024-04-20 14:07:17,14.98315101,0.0002467,70.0005,279.2266,256.0895,103.999,-0.00025212,-3.099e-05,0.0,0 STARLINK-6056,1 56813U 23078AY  24111.58839241 -.00003099  00000-0 -25212-3 0  9990,2 56813  70.0005 279.2266 0002467 256.0895 103.9990 14.98315101 49619,6950.239,96.108,573.819,570.389,0.0
56813.0,STARLINK-6056,PAYLOAD,2024-04-20 20:31:49,14.9831382,0.0002466,70.0006,278.5535,254.7806,105.308,-0.00026384,-3.238e-05,0.0,0 STARLINK-6056,1 56813U 23078AY  24111.85543574 -.00003238  00000-0 -26384-3 0  9997,2 56813  70.0006 278.5535 0002466 254.7806 105.3080 14.98313820 49912,6950.243,96.108,573.822,570.394,0.0
56813.0,STARLINK-6056,PAYLOAD,2024-04-21 14:09:16,14.98354011,0.0003087,69.9991,276.6999,274.3073,85.7733,-0.00058297,-7.046e-05,0.0,0 STARLINK-6056,1 56813U 23078AY  24112.58977734 -.00007046  00000-0 -58297-3 0  9996,2 56813  69.9991 276.6999 0003087 274.3073  85.7733 14.98354011 49765,6950.119,96.105,574.129,569.838,0.0
56813.0,STARLINK-6056,PAYLOAD,2024-04-21 20:33:47,14.98360569,0.0002891,69.9997,276.0292,270.3487,89.7341,-0.00039927,-4.857e-05,0.0,0 STARLINK-6056,1 56813U 23078AY  24112.85680507 -.00004857  00000-0 -39927-3 0  9991,2 56813  69.9997 276.0292 0002891 270.3487  89.7341 14.98360569 50067,6950.098,96.105,573.973,569.954,0.0
56813.0,STARLINK-6056,PAYLOAD,2024-04-22 10:59:02,14.98312231,0.0002504,70.0002,274.5143,260.9124,99.1752,0.00017569,2.003e-05,0.0,0 STARLINK-6056,1 56813U 23078AY  24113.45766714  .00002003  00000-0  17569-3 0  9990,2 56813  70.0002 274.5143 0002504 260.9124  99.1752 14.98312231 50153,6950.248,96.108,573.853,570.372,0.0
56813.0,STARLINK-6056,PAYLOAD,2024-04-22 20:35:50,14.98316253,0.000248,70.0005,273.5046,259.8037,100.2842,0.00019448,2.227e-05,0.0,0 STARLINK-6056,1 56813U 23078AY  24113.85822802  .00002227  00000-0  19448-3 0  9991,2 56813  70.0005 273.5046 0002480 259.8037 100.2842 14.98316253 49958,6950.235,96.108,573.824,570.377,0.0
56813.0,STARLINK-6056,PAYLOAD,2024-04-23 12:37:11,14.9834746,0.0002437,70.001,271.8213,253.8212,106.2679,-0.00022577,-2.787e-05,0.0,0 STARLINK-6056,1 56813U 23078AY  24114.52582331 -.00002787  00000-0 -22577-3 0  9996,2 56813  70.0010 271.8213 0002437 253.8212 106.2679 14.98347460 50312,6950.139,96.106,573.698,570.31,0.0
56813.0,STARLINK-6056,PAYLOAD,2024-04-23 14:13:19,14.98348453,0.0002442,70.0011,271.653,253.6735,106.4156,-0.00025058,-3.083e-05,0.0,0 STARLINK-6056,1 56813U 23078AY  24114.59258271 -.00003083  00000-0 -25058-3 0  9993,2 56813  70.0011 271.6530 0002442 253.6735 106.4156 14.98348453 50064,6950.136,96.106,573.698,570.304,0.0
56813.0,STARLINK-6056,PAYLOAD,2024-04-23 20:37:51,14.98331101,0.0002494,70.0011,270.9795,256.5721,103.516,5.2277e-05,5.31e-06,0.0,0 STARLINK-6056,1 56813U 23078AY  24114.85962465  .00000531  00000-0  52277-4 0  9996,2 56813  70.0011 270.9795 0002494 256.5721 103.5160 14.98331101 50361,6950.189,96.107,573.788,570.321,0.0
56813.0,STARLINK-6056,PAYLOAD,2024-04-24 14:15:19,14.98332634,0.0002563,70.0009,269.1275,256.3244,103.7629,8.1562e-05,8.8e-06,0.0,0 STARLINK-6056,1 56813U 23078AY  24115.59398148  .00000880  00000-0  81562-4 0  9995,2 56813  70.0009 269.1275 0002563 256.3244 103.7629 14.98332634 50214,6950.185,96.107,573.831,570.268,0.0
56813.0,STARLINK-6056,PAYLOAD,2024-04-24 20:39:51,14.98347789,0.0002411,70.001,268.4527,258.9096,101.1792,-0.00013826,-1.743e-05,0.0,0 STARLINK-6056,1 56813U 23078AY  24115.86101599 -.00001743  00000-0 -13826-3 0  9995,2 56813  70.0010 268.4527 0002411 258.9096 101.1792 14.98347789 50516,6950.138,96.106,573.679,570.327,0.0
56813.0,STARLINK-6056,PAYLOAD,2024-04-25 12:41:13,14.98326976,0.0002493,70.0007,266.7693,244.7357,115.3544,-1.599e-05,-2.84e-06,0.0,0 STARLINK-6056,1 56813U 23078AY  24116.52862667 -.00000284  00000-0 -15990-4 0  9993,2 56813  70.0007 266.7693 0002493 244.7357 115.3544 14.98326976 50618,6950.202,96.107,573.8,570.335,0.0
56813.0,STARLINK-6056,PAYLOAD,2024-04-25 14:17:21,14.98326674,0.0002501,70.001,266.6011,243.5376,116.5527,-3.5093e-05,-5.12e-06,0.0,0 STARLINK-6056,1 56813U 23078AY  24116.59538738 -.00000512  00000-0 -35093-4 0  9999,2 56813  70.0010 266.6011 0002501 243.5376 116.5527 14.98326674 50364,6950.203,96.107,573.806,570.33,0.0
56813.0,STARLINK-6056,PAYLOAD,2024-04-25 17:29:37,14.98326155,0.0002697,70.0011,266.2673,250.6789,109.4079,-6.1154e-05,-8.22e-06,0.0,0 STARLINK-6056,1 56813U 23078AY  24116.72890900 -.00000822  00000-0 -61154-4 0  9997,2 56813  70.0011 266.2673 0002697 250.6789 109.4079 14.98326155 50387,6950.205,96.107,573.944,570.195,0.0
56813.0,STARLINK-6056,PAYLOAD,2024-04-26 12:43:14,14.98330627,0.0002907,70.0005,264.2465,262.7929,97.29,-6.749e-05,-8.98e-06,0.0,0 STARLINK-6056,1 56813U 23078AY  24117.53002774 -.00000898  00000-0 -67490-4 0  9993,2 56813  70.0005 264.2465 0002907 262.7929  97.2900 14.98330627 50769,6950.191,96.107,574.076,570.036,0.0
56813.0,STARLINK-6056,PAYLOAD,2024-04-26 14:19:22,14.98330855,0.0002958,70.0,264.0765,266.0965,93.9856,-5.0565e-05,-6.96e-06,0.0,0 STARLINK-6056,1 56813U 23078AY  24117.59678710 -.00000696  00000-0 -50565-4 0  9999,2 56813  70.0000 264.0765 0002958 266.0965  93.9856 14.98330855 50517,6950.19,96.107,574.111,569.999,0.0
56813.0,STARLINK-6056,PAYLOAD,2024-04-26 19:07:46,14.98336855,0.0002849,70.0004,263.5716,265.6713,94.412,1.4597e-05,8.1e-07,0.0,0 STARLINK-6056,1 56813U 23078AY  24117.79706134  .00000081  00000-0  14597-4 0  9994,2 56813  70.0004 263.5716 0002849 265.6713  94.4120 14.98336855 50545,6950.172,96.107,574.017,570.057,0.0
56813.0,STARLINK-6056,PAYLOAD,2024-04-27 03:08:26,14.98340859,0.0003347,69.9995,262.7304,267.8739,92.2037,-2.5569e-06,-1.24e-06,0.0,0 STARLINK-6056,1 56813U 23078AY  24118.13085795 -.00000124  00000-0 -25569-5 0  9998,2 56813  69.9995 262.7304 0003347 267.8739  92.2037 14.98340859 50857,6950.159,96.106,574.351,569.698,0.0
56813.0,STARLINK-6056,PAYLOAD,2024-04-27 12:45:14,14.98329708,0.0003179,69.9998,261.7206,270.9752,89.1043,6.0007e-05,6.23e-06,0.0,0 STARLINK-6056,1 56813U 23078AY  24118.53142342  .00000623  00000-0  60007-4 0  9991,2 56813  69.9998 261.7206 0003179 270.9752  89.1043 14.98329708 50912,6950.194,96.107,574.268,569.849,0.0
56813.0,STARLINK-6056,PAYLOAD,2024-04-27 14:21:22,14.98330137,0.0003158,69.9999,261.5524,271.1138,88.9659,5.9538e-05,6.17e-06,0.0,0 STARLINK-6056,1 56813U 23078AY  24118.59818276  .00000617  00000-0  59538-4 0  9993,2 56813  69.9999 261.5524 0003158 271.1138  88.9659 14.98330137 50662,6950.192,96.107,574.252,569.863,0.0
